norad_id,name,regime,epoch,line1,line2,inclination,eccentricity,mean_motion,raan,arg_pericenter,mean_anomaly
19789,COSMOS 1998,LEO,23257.73090103,1 19789U 89009E   23257.73090103  .00000023  00000-0  64222-4 0    11,2 19789  82.6064 253.9132 0017285  56.7186 303.5560 12.64890324596778,82.6064,0.0017285,12.64890324,253.9132,56.7186,303.556
19789,COSMOS 1998,LEO,23258.44278054,1 19789U 89009E   23258.44278054  .00000022  00000-0  60422-4 0    10,2 19789  82.6064 253.4585 0017267  55.1775 305.0939 12.64890367596866,82.6064,0.0017267,12.64890367,253.4585,55.1775,305.0939
19789,COSMOS 1998,LEO,23259.07556226,1 19789U 89009E   23259.07556226  .00000018  00000-0  41260-4 0   171,2 19789  82.6064 253.0544 0017253  53.8086 306.4599 12.64890403597120,82.6064,0.0017253,12.64890403,253.0544,53.8086,306.4599
19789,COSMOS 1998,LEO,23259.47105095,1 19789U 89009E   23259.47105095  .00000013  00000-0  14037-4 0    19,2 19789  82.6065 252.8018 0017249  52.9432 307.3236 12.64890376596995,82.6065,0.0017249,12.64890376,252.8018,52.9432,307.3236
19789,COSMOS 1998,LEO,23260.49932129,1 19789U 89009E   23260.49932129  .00000010  00000-0 -20594-5 0    13,2 19789  82.6066 252.1452 0017208  50.7084 309.5532 12.64890382597121,82.6066,0.0017208,12.64890382,252.1452,50.7084,309.5532
19789,COSMOS 1998,LEO,23261.44849393,1 19789U 89009E   23261.44849393  .00000010  00000-0 -37425-5 0    10,2 19789  82.6068 251.5390 0017187  48.6589 311.5979 12.64890378597245,82.6068,0.0017187,12.64890378,251.539,48.6589,311.5979
19789,COSMOS 1998,LEO,23261.92308025,1 19789U 89009E   23261.92308025  .00000008  00000-0 -15080-4 0    14,2 19789  82.6068 251.2359 0017177  47.6378 312.6165 12.64890372597301,82.6068,0.0017177,12.64890372,251.2359,47.6378,312.6165
19789,COSMOS 1998,LEO,23263.42593695,1 19789U 89009E   23263.42593695  .00000018  00000-0  40978-4 0    14,2 19789  82.6070 250.2762 0017162  44.4090 315.8375 12.64890380597498,82.607,0.0017162,12.6489038,250.2762,44.409,315.8375
19789,COSMOS 1998,LEO,23263.66323009,1 19789U 89009E   23263.66323009  .00000020  00000-0  48515-4 0   197,2 19789  82.6070 250.1247 0017159  43.8994 316.3459 12.64890379597708,82.607,0.0017159,12.64890379,250.1247,43.8994,316.3459
19789,COSMOS 1998,LEO,23263.90052321,1 19789U 89009E   23263.90052321  .00000024  00000-0  70689-4 0    12,2 19789  82.6070 249.9731 0017154  43.3884 316.8555 12.64890410597551,82.607,0.0017154,12.6489041,249.9731,43.3884,316.8555
19789,COSMOS 1998,LEO,23264.45420709,1 19789U 89009E   23264.45420709  .00000033  00000-0  11977-3 0    16,2 19789  82.6071 249.6195 0017131  42.1609 318.0797 12.64890476597622,82.6071,0.0017131,12.64890476,249.6195,42.1609,318.0797
19789,COSMOS 1998,LEO,23264.92879329,1 19789U 89009E   23264.92879329  .00000039  00000-0  15032-3 0    16,2 19789  82.6072 249.3165 0017116  41.1272 319.1107 12.64890519597686,82.6072,0.0017116,12.64890519,249.3165,41.1272,319.1107
19789,COSMOS 1998,LEO,23265.48247724,1 19789U 89009E   23265.48247724  .00000041  00000-0  16288-3 0    13,2 19789  82.6073 248.9629 0017100  39.9164 320.3183 12.64890513597755,82.6073,0.00171,12.64890513,248.9629,39.9164,320.3183
19789,COSMOS 1998,LEO,23265.71977035,1 19789U 89009E   23265.71977035  .00000043  00000-0  17150-3 0   206,2 19789  82.6073 248.8114 0017091  39.3981 320.8351 12.64890510597965,82.6073,0.0017091,12.6489051,248.8114,39.3981,320.8351
19789,COSMOS 1998,LEO,23265.87796578,1 19789U 89009E   23265.87796578  .00000041  00000-0  16193-3 0    17,2 19789  82.6073 248.7104 0017090  39.0588 321.1736 12.64890502597807,82.6073,0.001709,12.64890502,248.7104,39.0588,321.1736
19789,COSMOS 1998,LEO,23266.43164961,1 19789U 89009E   23266.43164961  .00000041  00000-0  16448-3 0    18,2 19789  82.6075 248.3568 0017070  37.8431 322.3858 12.64890532597878,82.6075,0.001707,12.64890532,248.3568,37.8431,322.3858
19789,COSMOS 1998,LEO,23267.45991948,1 19789U 89009E   23267.45991948  .00000043  00000-0  17481-3 0    14,2 19789  82.6076 247.7001 0017029  35.5595 324.6629 12.64890607598004,82.6076,0.0017029,12.64890607,247.7001,35.5595,324.6629
19789,COSMOS 1998,LEO,23267.93450553,1 19789U 89009E   23267.93450553  .00000043  00000-0  17244-3 0    16,2 19789  82.6076 247.3971 0017008  34.5077 325.7117 12.64890639598062,82.6076,0.0017008,12.64890639,247.3971,34.5077,325.7117
19789,COSMOS 1998,LEO,23268.01360321,1 19789U 89009E   23268.01360321  .00000041  00000-0  16512-3 0   216,2 19789  82.6077 247.3466 0017005  34.3370 325.8818 12.64890635598259,82.6077,0.0017005,12.64890635,247.3466,34.337,325.8818
19789,COSMOS 1998,LEO,23268.40909158,1 19789U 89009E   23268.40909158  .00000043  00000-0  17625-3 0    12,2 19789  82.6077 247.0940 0016996  33.4750 326.7413 12.64890672598121,82.6077,0.0016996,12.64890672,247.094,33.475,326.7413
19789,COSMOS 1998,LEO,23268.88367761,1 19789U 89009E   23268.88367761  .00000037  00000-0  14397-3 0    18,2 19789  82.6077 246.7910 0016979  32.4371 327.7762 12.64890684598180,82.6077,0.0016979,12.64890684,246.791,32.4371,327.7762
19789,COSMOS 1998,LEO,23269.43736125,1 19789U 89009E   23269.43736125  .00000035  00000-0  13252-3 0    11,2 19789  82.6079 246.4374 0016960  31.2131 328.9965 12.64890734598256,82.6079,0.001696,12.64890734,246.4374,31.2131,328.9965
19789,COSMOS 1998,LEO,23270.38653331,1 19789U 89009E   23270.38653331  .00000031  00000-0  10920-3 0   222,2 19789  82.6080 245.8313 0016937  29.2075 330.9961 12.64890774598558,82.608,0.0016937,12.64890774,245.8313,29.2075,330.9961
19789,COSMOS 1998,LEO,23270.46563096,1 19789U 89009E   23270.46563096  .00000031  00000-0  10816-3 0    10,2 19789  82.6080 245.7808 0016935  29.0356 331.1675 12.64890786598383,82.608,0.0016935,12.64890786,245.7808,29.0356,331.1675
19789,COSMOS 1998,LEO,23271.41480273,1 19789U 89009E   23271.41480273  .00000027  00000-0  90452-4 0    11,2 19789  82.6081 245.1748 0016893  26.9239 333.2726 12.64890873598501,82.6081,0.0016893,12.64890873,245.1748,26.9239,333.2726
19789,COSMOS 1998,LEO,23271.88938864,1 19789U 89009E   23271.88938864  .00000024  00000-0  70635-4 0    14,2 19789  82.6082 244.8718 0016873  25.8765 334.3168 12.64890904598568,82.6082,0.0016873,12.64890904,244.8718,25.8765,334.3168
19789,COSMOS 1998,LEO,23272.36397455,1 19789U 89009E   23272.36397455  .00000022  00000-0  62030-4 0    11,2 19789  82.6083 244.5687 0016854  24.8224 335.3676 12.64890915598623,82.6083,0.0016854,12.64890915,244.5687,24.8224,335.3676
19789,COSMOS 1998,LEO,23272.99675580,1 19789U 89009E   23272.99675580  .00000013  00000-0  13057-4 0    13,2 19789  82.6083 244.1647 0016834  23.4347 336.7509 12.64890892598707,82.6083,0.0016834,12.64890892,244.1647,23.4347,336.7509
19789,COSMOS 1998,LEO,23274.42051377,1 19789U 89009E   23274.42051377  .00000010  00000-0 -50526-5 0    16,2 19789  82.6084 243.2556 0016802  20.3489 339.8269 12.64890868598884,82.6084,0.0016802,12.64890868,243.2556,20.3489,339.8269
19789,COSMOS 1998,LEO,23274.89509975,1 19789U 89009E   23274.89509975  .00000009  00000-0 -84862-5 0    17,2 19789  82.6086 242.9527 0016780  19.3233 340.8492 12.64890853598941,82.6086,0.001678,12.64890853,242.9527,19.3233,340.8492
19789,COSMOS 1998,LEO,23275.36968566,1 19789U 89009E   23275.36968566  .00000016  00000-0  30201-4 0   244,2 19789  82.6087 242.6497 0016764  18.2805 341.8886 12.64890880599185,82.6087,0.0016764,12.6489088,242.6497,18.2805,341.8886
19789,COSMOS 1998,LEO,23275.84427161,1 19789U 89009E   23275.84427161  .00000017  00000-0  34875-4 0    15,2 19789  82.6088 242.3467 0016748  17.2428 342.9231 12.64890875599069,82.6088,0.0016748,12.64890875,242.3467,17.2428,342.9231
19789,COSMOS 1998,LEO,23276.39795510,1 19789U 89009E   23276.39795510  .00000029  00000-0  96801-4 0    12,2 19789  82.6089 241.9933 0016721  16.0438 344.1181 12.64890959599131,82.6089,0.0016721,12.64890959,241.9933,16.0438,344.1181
19789,COSMOS 1998,LEO,23276.87254104,1 19789U 89009E   23276.87254104  .00000029  00000-0  99635-4 0    12,2 19789  82.6090 241.6903 0016701  15.0075 345.1510 12.64890957599192,82.609,0.0016701,12.64890957,241.6903,15.0075,345.151
19789,COSMOS 1998,LEO,23277.42622457,1 19789U 89009E   23277.42622457  .00000037  00000-0  14435-3 0    17,2 19789  82.6093 241.3369 0016679  13.7457 346.4087 12.64890994599263,82.6093,0.0016679,12.64890994,241.3369,13.7457,346.4087
19789,COSMOS 1998,LEO,23277.90081046,1 19789U 89009E   23277.90081046  .00000039  00000-0  15382-3 0    17,2 19789  82.6094 241.0340 0016660  12.7020 347.4489 12.64891007599325,82.6094,0.001666,12.64891007,241.034,12.702,347.4489
19789,COSMOS 1998,LEO,23278.37539633,1 19789U 89009E   23278.37539633  .00000045  00000-0  18290-3 0    17,2 19789  82.6096 240.7310 0016639  11.6021 348.5452 12.64891031599380,82.6096,0.0016639,12.64891031,240.731,11.6021,348.5452
19789,COSMOS 1998,LEO,23278.92907979,1 19789U 89009E   23278.92907979  .00000045  00000-0  18673-3 0    15,2 19789  82.6097 240.3776 0016616  10.3615 349.7817 12.64891077599459,82.6097,0.0016616,12.64891077,240.3776,10.3615,349.7817
19789,COSMOS 1998,LEO,23279.40366562,1 19789U 89009E   23279.40366562  .00000052  00000-0  22474-3 0    18,2 19789  82.6098 240.0746 0016597   9.2970 350.8427 12.64891133599513,82.6098,0.0016597,12.64891133,240.0746,9.297,350.8427
19789,COSMOS 1998,LEO,23279.64095852,1 19789U 89009E   23279.64095852  .00000053  00000-0  22745-3 0   264,2 19789  82.6099 239.9231 0016588   8.7748 351.3631 12.64891139599729,82.6099,0.0016588,12.64891139,239.9231,8.7748,351.3631
19789,COSMOS 1998,LEO,23279.87825146,1 19789U 89009E   23279.87825146  .00000050  00000-0  21139-3 0    12,2 19789  82.6099 239.7716 0016581   8.2574 351.8789 12.64891140599574,82.6099,0.0016581,12.6489114,239.7716,8.2574,351.8789
19789,COSMOS 1998,LEO,23280.35283731,1 19789U 89009E   23280.35283731  .00000043  00000-0  17378-3 0    17,2 19789  82.6100 239.4687 0016560   7.1793 352.9533 12.64891109599630,82.61,0.001656,12.64891109,239.4687,7.1793,352.9533
